FIRST,LAST,ADDRESS,CITY,STATE,ZIP,PHONE
Brenda,Adams,25 Annamark Road,Olinger,RL,12343,(555) 548-4752
Brandon,Adams,6 Logan Street,Greene City,RL,12340,(555) 895-0065
Clarence,Adams,774 Scofield Circle,Olinger,RL,12343,(555) 209-9061
Gerald,Adams,8 Sachtjen Drive,Agerstown,RL,12355,(555) 081-5931
James,Adams,0 Basil Lane,Olinger,RL,12343,(555) 247-2990
Henry,Alexander,98 Hayes Trail,Olinger,RL,12343,(555) 335-2431
Phillip,Alexander,518 Homewood Court,Carbon Creek,RL,12341,(555) 214-6720
Rachel,Alexander,9 Delaware Court,Olinger,RL,12343,(555) 457-7120
Todd,Alexander,8 Chive Center,Olinger,RL,12343,(555) 001-6509
Mildred,Allen,777 Service Plaza,Olinger,RL,12343,(555) 434-3651
Ronald,Allen,646 Randy Alley,Olinger,RL,12343,(555) 172-4469
Joseph,Alvarez,05 Londonderry Way,Olinger,RL,12343,(555) 356-1703
Jessica,Alvarez,5083 Corben Junction,Olinger,RL,12343,(555) 810-1152
Richard,Alvarez,2256 Londonderry Parkway,Olinger,RL,12343,(555) 752-1123
Aaron,Anderson,65 Sycamore Terrace,Olinger,RL,12343,(555) 545-2960
Alice,Anderson,66 Sycamore Terrace,Olinger,RL,12343,(555) 877-6375
Michael,Anderson,9426 Buena Vista Drive,Olinger,RL,12343,(555) 382-1406
Harry,Andrews,7 Thackeray Junction,Olinger,RL,12343,(555) 352-0815
Terry,Andrews,80017 Stuart Park,Olinger,RL,12343,(555) 298-6731
Wanda,Andrews,81245 Sutteridge Road,Olinger,RL,12343,(555) 967-7298
Christina,Armstrong,8815 Ruskin Drive,Olinger,RL,12343,(555) 344-3576
Christopher,Armstrong,8815 Ruskin Drive,Olinger,RL,12343,(555) 344-3576
Daniel,Armstrong,6 Tennyson Hill,Olinger,RL,12343,(555) 269-3600
Kevin,Armstrong,687 Donald Parkway,Olinger,RL,12343,(555) 500-0864
Sharon,Armstrong,62 Anhalt Avenue,Olinger,RL,12343,(555) 736-7995
Todd,Armstrong,9770 Meadow Vale Crossing,Olinger,RL,12343,(555) 300-5385
Andrea,Arnold,28216 Lotheville Street,Greene City,RL,12340,(555) 173-1668
Christine,Arnold,2974 Pierstorff Plaza,Olinger,RL,12343,(555) 125-7362
Clarence,Arnold,0823 High Crossing Hill,Greene City,RL,12340,(555) 602-4577
Douglas,Arnold,3475 Ridgeway Court,Greene City,RL,12340,(555) 692-3171
Joan,Arnold,967 Commercial Hill,Olinger,RL,12343,(555) 367-1761
Carol,Austin,29056 Pennsylvania Crossing,Carbon Creek,RL,12341,(555) 891-4700
Martin,Austin,779 Rockefeller Pass,Olinger,RL,12343,(555) 035-1384
Shawn,Austin,25 Barby Park,Greene City,RL,12340,(555) 508-7676
Wanda,Austin,52 Haas Crossing,Carbon Creek,RL,12341,(555) 469-8330
Donald,Bailey,0 Vermont Road,Agerstown,RL,12355,(555) 990-5938
Mildred,Bailey,36363 Larry Crossing,Olinger,RL,12343,(555) 699-5795
Anna,Baker,8 Goodland Point,Olinger,RL,12343,(555) 021-1650
Chris,Baker,97963 Rusk Plaza,Olinger,RL,12343,(555) 961-8860
Antonio,Banks,42 John Wall Point,Greene City,RL,12340,(555) 104-2829
Chris,Banks,83675 Moose Park,Olinger,RL,12343,(555) 388-7544
Irene,Banks,1679 American Ash Crossing,Olinger,RL,12343,(555) 930-7093
Kevin,Banks,7953 Ryan Terrace,Greene City,RL,12340,(555) 539-9291
Willie,Banks,10 Magdeline Point,Olinger,RL,12343,(555) 262-9835
Jane,Barnes,59 Sycamore Lane,Olinger,RL,12343,(555) 142-4324
Larry,Barnes,5 Hollow Ridge Avenue,Olinger,RL,12343,(555) 901-8088
Phyllis,Barnes,57834 Express Avenue,Olinger,RL,12343,(555) 479-1524
Sandra,Barnes,13 Homewood Circle,Olinger,RL,12343,(555) 711-3262
Adam,Bell,9 Manley Way,Olinger,RL,12343,(555) 755-0809
Linda,Bell,34 Butternut Junction,Olinger,RL,12343,(555) 911-0672
Melissa,Bell,521 Cambridge Pass,Greene City,RL,12340,(555) 732-6057
Nancy,Bell,9 Havey Circle,Greene City,RL,12340,(555) 964-0792
Philip,Bell,9338 Knutson Drive,Olinger,RL,12343,(555) 706-3886
Mildred,Bennett,7 Valley Edge Circle,Greene City,RL,12340,(555) 164-9678
Philip,Bennett,24835 Meadow Valley Crossing,Olinger,RL,12343,(555) 927-8832
Todd,Bennett,7166 Fairview Circle,Olinger,RL,12343,(555) 265-8607
Walter,Bennett,85614 Gina Park,Greene City,RL,12340,(555) 302-1893
Gregory,Berry,006 Sundown Park,Agerstown,RL,12355,(555) 277-5444
Henry,Berry,8 Orin Alley,Olinger,RL,12343,(555) 519-4476
Bruce,Bishop,417 Dixon Alley,Greene City,RL,12340,(555) 855-3181
Earl,Black,5 Schiller Junction,Olinger,RL,12343,(555) 259-4404
Gloria,Black,2 Merchant Plaza,Olinger,RL,12343,(555) 250-6875
Martin,Black,314 Sutherland Circle,Olinger,RL,12343,(555) 479-5948
Shirley,Black,314 Sutherland Circle,Olinger,RL,12343,(555) 479-5948
Carl,Bowman,99832 Vermont Court,Greene City,RL,12340,(555) 744-4828
Martha,Bowman,2 Debs Alley,Olinger,RL,12343,(555) 760-6190
Stephen,Bowman,54618 Cottonwood Parkway,Greene City,RL,12340,(555) 968-7518
Sarah,Bowman,97 Magdeline Parkway,Olinger,RL,12343,(555) 331-9161
Catherine,Boyd,374 Ilene Road,Greene City,RL,12340,(555) 058-8220
Justin,Boyd,9862 Lyons Center,Greene City,RL,12340,(555) 905-0129
Paula,Boyd,530 Mallard Center,Agerstown,RL,12355,(555) 152-3445
Ronald,Boyd,7163 Stuart Road,Greene City,RL,12340,(555) 464-8059
Alice,Bradley,1 Hoffman Terrace,Olinger,RL,12343,(555) 065-2095
Jane,Bradley,158 Oak Valley Plaza,Olinger,RL,12343,(555) 272-5565
Randy,Bradley,5608 Declaration Alley,Carbon Creek,RL,12341,(555) 144-9685
Amy,Brooks,5228 Nelson Circle,Olinger,RL,12343,(555) 979-8839
Bonnie,Brooks,1 Lake View Parkway,Greene City,RL,12340,(555) 285-3728
Donna,Brooks,71 Farragut Point,Agerstown,RL,12355,(555) 180-1334
Jerry,Brooks,7 Carpenter Parkway,Olinger,RL,12343,(555) 924-8463
Ashley,Brown,510 Westend Avenue,Greene City,RL,12340,(555) 254-7968
Charles,Brown,84 Kinsman Center,Olinger,RL,12343,(555) 767-6892
Eugene,Brown,3 Pennsylvania Lane,Greene City,RL,12340,(555) 245-6768
Julia,Brown,584 Dryden Crossing,Agerstown,RL,12355,(555) 312-9703
Howard,Bryant,1808 Eggendart Parkway,Greene City,RL,12340,(555) 884-0049
Kenneth,Bryant,78 Shoshone Trail,Greene City,RL,12340,(555) 026-9785
Lillian,Bryant,6947 Prairieview Lane,Olinger,RL,12343,(555) 887-7007
Brandon,Burke,25360 Gateway Parkway,Carbon Creek,RL,12341,(555) 577-7291
Willie,Burke,0186 Pine View Court,Olinger,RL,12343,(555) 565-6648
Fred,Burns,5 Acker Park,Olinger,RL,12343,(555) 104-4704
Frances,Burns,5 Acker Park,Olinger,RL,12343,(555) 104-4704
Janice,Burns,26 Summit Center,Greene City,RL,12340,(555) 597-9580
Nicholas,Burns,032 Ridgeview Circle,Greene City,RL,12340,(555) 522-8527
Frances,Burton,55793 Starling Hill,Greene City,RL,12340,(555) 666-7497
Kevin,Burton,07 Lakewood Terrace,Greene City,RL,12340,(555) 587-4389
Ronald,Burton,23837 Anderson Place,Greene City,RL,12340,(555) 703-1503
Rachel,Burton,89 Sunbrook Center,Greene City,RL,12340,(555) 277-3944
Albert,Butler,6307 Tomscot Park,Olinger,RL,12343,(555) 050-7441
Christina,Butler,418 Lillian Lane,Greene City,RL,12340,(555) 027-4528
Cynthia,Butler,01 Mariners Cove Court,Olinger,RL,12343,(555) 211-2476
Paula,Butler,9424 Evergreen Road,Greene City,RL,12340,(555) 559-5074
Diane,Campbell,2 Dapin Avenue,Agerstown,RL,12355,(555) 016-9516
Dennis,Campbell,77020 Surrey Point,Agerstown,RL,12355,(555) 651-9742
William,Campbell,130 Calypso Plaza,Olinger,RL,12343,(555) 488-3842
Amy,Carpenter,60 Bunting Circle,Carbon Creek,RL,12341,(555) 304-7837
Ernest,Carpenter,51589 Prairie Rose Park,Olinger,RL,12343,(555) 021-7246
Keith,Carpenter,7 Blaine Center,Olinger,RL,12343,(555) 971-0033
Janet,Carr,94 Badeau Parkway,Greene City,RL,12340,(555) 560-4027
Ruth,Carr,71144 Warner Street,Greene City,RL,12340,(555) 115-4457
Ashley,Carroll,8821 Rutledge Crossing,Greene City,RL,12340,(555) 790-6693
Carl,Carroll,59941 Kipling Parkway,Greene City,RL,12340,(555) 720-6622
Jose,Carroll,36 Mifflin Pass,Olinger,RL,12343,(555) 749-8687
Kathleen,Carroll,34741 Hooker Trail,Greene City,RL,12340,(555) 302-0976
Kathryn,Carroll,85 Hovde Parkway,Olinger,RL,12343,(555) 488-7868
Mary,Carroll,040 Gateway Trail,Greene City,RL,12340,(555) 989-7101
Nancy,Carroll,023 Armistice Park,Greene City,RL,12340,(555) 074-8506
Brandon,Carter,89 Eastlawn Trail,Olinger,RL,12343,(555) 482-8372
Christina,Carter,68569 Petterle Center,Olinger,RL,12343,(555) 081-2370
Douglas,Carter,69 Kipling Drive,Agerstown,RL,12355,(555) 239-1699
George,Carter,648 Sunfield Pass,Carbon Creek,RL,12341,(555) 760-7011
Mary,Carter,127 Golf View Pass,Olinger,RL,12343,(555) 416-6352
Frank,Castillo,29718 Orin Point,Olinger,RL,12343,(555) 166-7353
Joan,Castillo,845 American Terrace,Olinger,RL,12343,(555) 706-2760
Samuel,Castillo,6280 Karstens Trail,Carbon Creek,RL,12341,(555) 891-8297
Wayne,Castillo,7145 Talisman Center,Olinger,RL,12343,(555) 517-8517
Alan,Chapman,2734 Mandrake Place,Olinger,RL,12343,(555) 106-3320
John,Chapman,00358 Kim Circle,Agerstown,RL,12355,(555) 881-0862
Jean,Chapman,7967 Nevada Park,Carbon Creek,RL,12341,(555) 454-4535
Judith,Chapman,24 Texas Avenue,Greene City,RL,12340,(555) 597-4667
Marilyn,Chapman,0 Golf View Pass,Olinger,RL,12343,(555) 988-1676
Nicole,Chapman,17794 Jenifer Court,Agerstown,RL,12355,(555) 446-9492
Richard,Chapman,3413 Mendota Place,Olinger,RL,12343,(555) 293-3919
Sara,Chapman,0048 Arkansas Point,Olinger,RL,12343,(555) 853-8871
Timothy,Chapman,089 Mifflin Park,Greene City,RL,12340,(555) 559-8206
Bruce,Chavez,3268 Linden Parkway,Olinger,RL,12343,(555) 140-0032
Jerry,Chavez,576 Moose Junction,Olinger,RL,12343,(555) 671-5766
Jimmy,Chavez,2 Hoard Terrace,Carbon Creek,RL,12341,(555) 116-2987
Theresa,Chavez,83379 Hoepker Street,Olinger,RL,12343,(555) 566-6391
William,Chavez,5389 Mariners Cove Way,Olinger,RL,12343,(555) 751-2294
William,Chavez,168 Fallview Terrace,Olinger,RL,12343,(555) 218-3417
Billy,Clark,39 Michigan Lane,Greene City,RL,12340,(555) 582-0080
Chris,Clark,51040 Magdeline Lane,Olinger,RL,12343,(555) 988-8239
Chris,Clark,2822 Rutledge Point,Olinger,RL,12343,(555) 144-3710
Cynthia,Clark,9538 Granby Parkway,Olinger,RL,12343,(555) 323-2972
Douglas,Clark,54 Green Ridge Circle,Greene City,RL,12340,(555) 742-4848
Gary,Clark,4238 Butternut Park,Olinger,RL,12343,(555) 264-4419
Laura,Clark,2 Sherman Road,Olinger,RL,12343,(555) 474-4936
Christine,Cole,976 Mitchell Park,Greene City,RL,12340,(555) 312-5339
Diana,Cole,35788 Green Center,Olinger,RL,12343,(555) 172-9180
Robin,Cole,60 Fremont Road,Agerstown,RL,12355,(555) 248-1009
Sarah,Cole,6088 Nova Place,Greene City,RL,12340,(555) 929-3824
Beverly,Coleman,5841 Debra Drive,Olinger,RL,12343,(555) 455-6896
Debra,Coleman,60 Buena Vista Place,Olinger,RL,12343,(555) 331-1304
Christine,Collins,88374 Sauthoff Court,Greene City,RL,12340,(555) 644-7900
Donald,Collins,41310 Anniversary Terrace,Greene City,RL,12340,(555) 513-8259
Eric,Collins,91690 Cardinal Street,Olinger,RL,12343,(555) 744-7380
Jessica,Collins,16924 Mcguire Crossing,Olinger,RL,12343,(555) 246-7387
Scott,Collins,88612 Sage Pass,Greene City,RL,12340,(555) 592-8324
Billy,Cook,9895 Bashford Park,Carbon Creek,RL,12341,(555) 933-3717
Brian,Cook,4844 Vahlen Trail,Agerstown,RL,12355,(555) 393-6631
Ernest,Cook,689 Fremont Way,Greene City,RL,12340,(555) 645-3724
Gary,Cook,50 Macpherson Place,Greene City,RL,12340,(555) 512-9270
Jean,Cook,65679 Arkansas Pass,Greene City,RL,12340,(555) 624-8053
Patrick,Cook,299 Derek Point,Greene City,RL,12340,(555) 666-5667
Robin,Cook,93709 Old Gate Road,Greene City,RL,12340,(555) 678-9958
Todd,Cook,80728 Dapin Alley,Olinger,RL,12343,(555) 521-2916
William,Cook,516 Marcy Junction,Greene City,RL,12340,(555) 864-2776
Anna,Cooper,64233 Carioca Junction,Olinger,RL,12343,(555) 269-0165
Beverly,Cooper,9890 Basil Street,Agerstown,RL,12355,(555) 356-5488
Joyce,Cooper,09 Bunker Hill Place,Olinger,RL,12343,(555) 604-3813
Mary,Cooper,2 Crownhardt Alley,Greene City,RL,12340,(555) 284-9918
Patricia,Cooper,115 Tomscot Terrace,Agerstown,RL,12355,(555) 779-1628
Roger,Cooper,115 Tomscot Terrace,Agerstown,RL,12343,(555) 033-8458
Teresa,Cooper,62320 Northridge Alley,Olinger,RL,12343,(555) 234-4299
Adam,Cox,0334 Shoshone Street,Olinger,RL,12343,(555) 557-4516
Donald,Cox,37549 Knutson Trail,Olinger,RL,12343,(555) 211-9670
Jesse,Cox,77 Monterey Crossing,Olinger,RL,12343,(555) 038-8604
Janice,Crawford,34 Porter Alley,Agerstown,RL,12355,(555) 693-6549
James,Crawford,79 Scofield Center,Olinger,RL,12343,(555) 438-4567
Norma,Crawford,06943 Pearson Plaza,Olinger,RL,12343,(555) 566-7668
Todd,Crawford,1800 Esker Court,Olinger,RL,12343,(555) 291-9991
Laura,Cruz,6646 Gateway Parkway,Greene City,RL,12340,(555) 055-8104
Melissa,Cruz,17220 Sycamore Center,Olinger,RL,12343,(555) 224-4696
William,Cruz,12619 Stang Center,Olinger,RL,12343,(555) 802-7048
Annie,Cunningham,32035 Independence Terrace,Greene City,RL,12340,(555) 638-4317
Stephanie,Cunningham,001 Monterey Avenue,Olinger,RL,12343,(555) 176-2298
Virginia,Cunningham,73895 Moland Junction,Olinger,RL,12343,(555) 565-5740
Chris,Mason,5 Sycamore Center,Olinger,RL,12343,(555) 948-5233
Harry,Oliver,7 Melby Road,Agerstown,RL,12355,(555) 904-4118
Stephanie,Owens,3273 Lakewood Way,Olinger,RL,12343,(555) 922-2220
Roy,Payne,2 La Follette Circle,Olinger,RL,12343,(555) 561-3668
Douglas,Perez,7991 Merry Plaza,Greene City,RL,12340,(555) 838-5910
Jane,Peterson,6534 Namekagon Junction,Olinger,RL,12343,(555) 213-8795
Tina,Peterson,35 Birchwood Court,Greene City,RL,12340,(555) 304-3522
Norma,Porter,4 Elka Junction,Greene City,RL,12340,(555) 130-7424
Ruby,Powell,5 Cordelia Plaza,Greene City,RL,12340,(555) 470-1430
Cynthia,Price,55 Gerald Center,Greene City,RL,12340,(555) 643-5546
Dorothy,Ramirez,97 Esch Junction,Olinger,RL,12343,(555) 373-2004
Debra,Ramirez,0 Messerschmidt Circle,Olinger,RL,12343,(555) 100-6545
Teresa,Ramirez,5 2nd Drive,Olinger,RL,12343,(555) 572-0014
Edward,Ray,944 Muir Center,Olinger,RL,12343,(555) 231-9848
Ernest,Ray,2118 Summit Trail,Olinger,RL,12343,(555) 084-6834
Nancy,Ray,69481 John Wall Drive,Olinger,RL,12343,(555) 833-9750
Ralph,Ray,7 Sunnyside Avenue,Olinger,RL,12343,(555) 374-5112
Brandon,Reed,9 Sachtjen Drive,Greene City,RL,12340,(555) 463-1793
Patricia,Reed,37 Old Gate Drive,Greene City,RL,12340,(555) 626-5842
Todd,Reed,66 Oakridge Way,Olinger,RL,12343,(555) 800-8878
Donna,Reid,1 Dunning Hill,Greene City,RL,12340,(555) 807-1895
Irene,Reid,656 Kenwood Court,Olinger,RL,12343,(555) 523-6438
Joshua,Reid,8 Cherokee Plaza,Olinger,RL,12343,(555) 054-3886
Michael,Reid,9918 5th Lane,Agerstown,RL,12355,(555) 014-8029
Nancy,Reid,79 Buena Vista Court,Olinger,RL,12343,(555) 311-8579
Steven,Reid,64469 Debra Road,Olinger,RL,12343,(555) 378-4268
Martin,Reyes,9 Morrow Point,Greene City,RL,12340,(555) 035-8477
Virginia,Rice,75 Warner Avenue,Greene City,RL,12340,(555) 584-5732
Joseph,Richards,73 Doe Crossing Street,Olinger,RL,12343,(555) 085-7682
Sharon,Richards,1029 Northview Place,Greene City,RL,12340,(555) 544-6196
Margaret,Richardson,15954 Huxley Place,Greene City,RL,12340,(555) 380-8904
Paul,Richardson,17076 Center Crossing,Greene City,RL,12340,(555) 381-7725
Andrew,Riley,1 Goodland Drive,Olinger,RL,12343,(555) 410-0941
Diane,Riley,0 Prairieview Parkway,Greene City,RL,12340,(555) 180-8176
George,Riley,29 Sherman Road,Greene City,RL,12340,(555) 567-1326
Sarah,Riley,33999 Lakeland Lane,Olinger,RL,12343,(555) 428-4635
John,Rivera,90409 Gina Terrace,Olinger,RL,12343,(555) 549-6873
Brandon,Roberts,004 Rutledge Place,Greene City,RL,12340,(555) 672-5181
Howard,Roberts,19 Crescent Oaks Lane,Olinger,RL,12343,(555) 598-1412
Tina,Robertson,625 Stone Corner Pass,Olinger,RL,12343,(555) 150-0520
Craig,Robinson,4 Reindahl Court,Carbon Creek,RL,12341,(555) 439-5389
George,Robinson,5686 Bluejay Avenue,Greene City,RL,12340,(555) 286-6606
Jerry,Robinson,73 Bluejay Parkway,Greene City,RL,12340,(555) 041-8169
Kathryn,Robinson,7761 Hanson Way,Greene City,RL,12340,(555) 386-3184
Louise,Robinson,9 Montana Court,Olinger,RL,12343,(555) 409-9836
Phillip,Robinson,9904 Bluestem Court,Greene City,RL,12340,(555) 087-5642
Alan,Rodriguez,32 Artisan Place,Carbon Creek,RL,12341,(555) 721-1908
Anne,Rodriguez,12208 Melody Plaza,Olinger,RL,12343,(555) 675-3862
Juan,Rodriguez,0005 Garrison Street,Greene City,RL,12340,(555) 901-6501
Martha,Rodriguez,64 Raven Trail,Olinger,RL,12343,(555) 963-6341
Nicole,Rodriguez,4 Lukken Street,Olinger,RL,12343,(555) 637-6001
Angela,Rogers,0 Monument Point,Agerstown,RL,12355,(555) 134-3124
Joe,Rogers,952 Cody Way,Greene City,RL,12340,(555) 948-7134
Keith,Rogers,23554 Crownhardt Junction,Greene City,RL,12340,(555) 344-7071
Kimberly,Rogers,189 Schmedeman Court,Greene City,RL,12340,(555) 311-3944
Lillian,Rogers,005 Crest Line Center,Olinger,RL,12343,(555) 027-8068
Ruby,Rogers,9 Clemons Plaza,Olinger,RL,12343,(555) 094-0979
Alan,Romero,4 Hoffman Lane,Agerstown,RL,12355,(555) 811-3351
Dorothy,Romero,0649 Dryden Plaza,Greene City,RL,12340,(555) 319-8337
Donald,Rose,25 Nobel Pass,Olinger,RL,12343,(555) 569-0315
Doris,Rose,9 Brickson Park Terrace,Olinger,RL,12343,(555) 682-0858
Alan,Ross,3359 Sycamore Center,Greene City,RL,12340,(555) 922-6569
Donald,Ross,7647 Corry Center,Olinger,RL,12343,(555) 662-3317
Jonathan,Ross,81 Chive Alley,Olinger,RL,12343,(555) 949-1398
Stephen,Ross,80 Bartelt Avenue,Greene City,RL,12340,(555) 741-0648
Timothy,Ross,803 Nobel Terrace,Greene City,RL,12340,(555) 716-6047
Brenda,Ruiz,591 Larry Terrace,Greene City,RL,12340,(555) 928-0929
Betty,Ruiz,73088 Pearson Crossing,Greene City,RL,12340,(555) 104-8552
Catherine,Ruiz,46266 Knutson Crossing,Greene City,RL,12340,(555) 647-2969
Jason,Ruiz,9435 Blackbird Pass,Greene City,RL,12340,(555) 320-8953
Jack,Russell,40 Mosinee Terrace,Greene City,RL,12340,(555) 228-1198
Lisa,Russell,968 Mendota Point,Greene City,RL,12340,(555) 983-0070
Jack,Ryan,5332 Susan Road,Olinger,RL,12343,(555) 204-6122
Michelle,Ryan,0 Chinook Alley,Greene City,RL,12340,(555) 080-7374
James,Sanchez,4569 La Follette Court,Olinger,RL,12343,(555) 519-6939
Larry,Sanchez,32 Buhler Parkway,Olinger,RL,12343,(555) 748-2329
Margaret,Sanchez,29 Buena Vista Trail,Olinger,RL,12343,(555) 596-7857
Nicholas,Sanchez,777 Eastlawn Way,Olinger,RL,12343,(555) 554-6498
Rebecca,Sanchez,2 Randy Drive,Olinger,RL,12343,(555) 069-4684
Teresa,Sanchez,56 Carpenter Road,Olinger,RL,12343,(555) 213-1536
Virginia,Sanders,2 Elmside Court,Olinger,RL,12343,(555) 864-4944
Albert,Schmidt,96 Waubesa Crossing,Olinger,RL,12343,(555) 614-9171
Gregory,Schmidt,51073 Carberry Junction,Greene City,RL,12340,(555) 680-4575
Joe,Schmidt,1007 Crest Line Alley,Olinger,RL,12343,(555) 160-5822
Lillian,Schmidt,785 Nancy Point,Olinger,RL,12343,(555) 908-4877
Jason,Scott,0 Caliangt Terrace,Olinger,RL,12343,(555) 612-2450
Phyllis,Scott,578 Kennedy Plaza,Greene City,RL,12340,(555) 164-7277
Russell,Scott,3 Prairie Rose Avenue,Olinger,RL,12343,(555) 114-1267
Stephanie,Scott,6430 Longview Drive,Greene City,RL,12340,(555) 142-9760
Catherine,Shaw,4 Dunning Junction,Greene City,RL,12340,(555) 242-4206
Harold,Shaw,0806 Melrose Junction,Agerstown,RL,12355,(555) 307-7326
Melissa,Shaw,70221 Amoth Alley,Olinger,RL,12343,(555) 017-1394
Victor,Shaw,6266 Delaware Junction,Olinger,RL,12343,(555) 694-8367
Michelle,Simpson,440 Barnett Point,Olinger,RL,12343,(555) 545-8758
Thomas,Simpson,171 Coleman Drive,Greene City,RL,12340,(555) 217-5063
Brandon,Sims,8 Commercial Drive,Agerstown,RL,12355,(555) 497-3683
Jacqueline,Sims,72452 Reinke Center,Olinger,RL,12343,(555) 627-3121
Rose,Sims,4478 Commercial Trail,Greene City,RL,12340,(555) 927-8705
Susan,Sims,603 Tomscot Hill,Greene City,RL,12340,(555) 159-6211
Todd,Smith,0144 Macpherson Way,Olinger,RL,12343,(555) 120-9543
Wayne,Smith,18 Onsgard Circle,Greene City,RL,12340,(555) 813-9807
Antonio,Snyder,6 Straubel Parkway,Olinger,RL,12343,(555) 676-4916
Bruce,Spencer,525 Debs Way,Agerstown,RL,12355,(555) 513-4909
Bonnie,Spencer,91 Meadow Vale Court,Olinger,RL,12343,(555) 436-8749
Diane,Spencer,59250 Hovde Street,Greene City,RL,12340,(555) 887-6756
Judith,Spencer,18357 Haas Crossing,Olinger,RL,12343,(555) 265-7962
Rose,Stanley,931 Brown Point,Olinger,RL,12343,(555) 511-4776
Anthony,Stephens,83 Rowland Pass,Olinger,RL,12343,(555) 250-6900
Earl,Stephens,659 Dwight Crossing,Olinger,RL,12343,(555) 847-8303
Jacqueline,Stephens,51 Anhalt Avenue,Greene City,RL,12340,(555) 398-1276
Nicholas,Stephens,674 North Drive,Olinger,RL,12343,(555) 997-6991
Ruby,Stephens,0528 Cardinal Pass,Olinger,RL,12343,(555) 897-2601
Andrea,Stevens,76782 Maywood Road,Olinger,RL,12343,(555) 547-2600
Frank,Stevens,994 Longview Avenue,Agerstown,RL,12355,(555) 614-9057
Frances,Stevens,26177 Meadow Valley Alley,Greene City,RL,12340,(555) 916-0129
Kathryn,Stevens,074 Springs Terrace,Olinger,RL,12343,(555) 963-9435
Frank,Stewart,14649 Esker Road,Olinger,RL,12343,(555) 719-2329
Shirley,Stewart,2688 Maryland Avenue,Olinger,RL,12343,(555) 776-2581
Beverly,Stone,77522 7th Center,Olinger,RL,12343,(555) 533-4845
Edward,Sullivan,9653 Talisman Crossing,Olinger,RL,12343,(555) 997-3804
Jacqueline,Sullivan,98 Anderson Alley,Olinger,RL,12343,(555) 606-6670
Karen,Sullivan,77 Anhalt Junction,Carbon Creek,RL,12341,(555) 261-9171
Roger,Sullivan,35 Eagle Crest Drive,Olinger,RL,12343,(555) 407-2259
Andrew,Taylor,5 Manufacturers Trail,Greene City,RL,12340,(555) 035-5393
Charles,Taylor,642 Hermina Drive,Olinger,RL,12343,(555) 274-1536
Frank,Taylor,64920 Nevada Circle,Olinger,RL,12343,(555) 891-2475
Irene,Taylor,31922 Lunder Circle,Greene City,RL,12340,(555) 227-4368
Joseph,Taylor,8154 Weeping Birch Junction,Olinger,RL,12343,(555) 745-4022
Ryan,Taylor,0 Maryland Lane,Greene City,RL,12340,(555) 546-7169
Harold,Thomas,78 Waywood Lane,Agerstown,RL,12355,(555) 364-1198
Jimmy,Thomas,0987 Meadow Valley Way,Olinger,RL,12343,(555) 040-0637
Jean,Thomas,171 Shasta Junction,Carbon Creek,RL,12341,(555) 400-9625
Earl,Thompson,334 Nancy Avenue,Greene City,RL,12340,(555) 857-3513
Karen,Torres,656 Kingsford Park,Greene City,RL,12340,(555) 748-4948
Maria,Torres,91 Blaine Terrace,Greene City,RL,12340,(555) 012-4370
Ronald,Torres,4521 Holy Cross Point,Olinger,RL,12343,(555) 744-7908
Eric,Tucker,924 Swallow Trail,Greene City,RL,12340,(555) 254-9105
Larry,Tucker,455 Chinook Parkway,Greene City,RL,12340,(555) 645-3357
Brandon,Turner,09118 Corry Park,Greene City,RL,12340,(555) 349-6275
Eric,Turner,42737 Lotheville Alley,Greene City,RL,12340,(555) 789-3344
Paula,Turner,8617 Cardinal Hill,Olinger,RL,12343,(555) 604-0042
Patrick,Vasquez,631 Erie Way,Olinger,RL,12343,(555) 268-4913
Anna,Wagner,2 Ilene Plaza,Olinger,RL,12343,(555) 551-7901
Jeremy,Wagner,7843 Moulton Road,Olinger,RL,12343,(555) 444-1575
Kathleen,Wagner,34 Autumn Leaf Road,Olinger,RL,12343,(555) 540-9409
Heather,Walker,3027 La Follette Junction,Olinger,RL,12343,(555) 639-8662
Richard,Walker,4 Buell Junction,Olinger,RL,12343,(555) 756-2907
Amanda,Wallace,61 Sloan Junction,Olinger,RL,12343,(555) 197-7651
Stephen,Wallace,66 Eastlawn Center,Olinger,RL,12343,(555) 390-7805
Denise,Ward,137 Darwin Trail,Olinger,RL,12343,(555) 234-9752
Louise,Ward,9 Oak Valley Way,Olinger,RL,12343,(555) 857-2845
Bobby,Warren,1141 Farmco Park,Olinger,RL,12343,(555) 682-5455
Janet,Warren,0284 4th Way,Olinger,RL,12343,(555) 354-7090
Tina,Warren,8434 Heffernan Trail,Carbon Creek,RL,12341,(555) 192-6250
Jessica,Washington,688 Maywood Terrace,Olinger,RL,12343,(555) 710-0187
Larry,Washington,88 Westport Parkway,Olinger,RL,12343,(555) 851-8224
Terry,Washington,90854 Lukken Road,Olinger,RL,12343,(555) 733-0141
Janet,Watkins,9 Trailsway Point,Greene City,RL,12340,(555) 377-0271
Henry,Watson,68 Dexter Drive,Greene City,RL,12340,(555) 759-6153
Jack,Watson,748 Green Ridge Road,Greene City,RL,12340,(555) 213-5921
Ryan,Watson,19318 Sullivan Circle,Olinger,RL,12343,(555) 802-9592
Thomas,Watson,19284 Londonderry Terrace,Greene City,RL,12340,(555) 651-3022
William,Watson,12343 Dorton Terrace,Greene City,RL,12340,(555) 244-3591
Phyllis,Weaver,831 Pawling Lane,Olinger,RL,12343,(555) 823-3212
Carlos,Webb,6616 Mcguire Circle,Olinger,RL,12343,(555) 809-5227
Johnny,Webb,36523 Cordelia Place,Olinger,RL,12343,(555) 317-1350
Phyllis,Webb,17758 Erie Circle,Greene City,RL,12340,(555) 619-6989
Robin,Welch,97 Summerview Lane,Greene City,RL,12340,(555) 539-3747
Sandra,Welch,70 Tomscot Way,Greene City,RL,12340,(555) 715-4449
Victor,Wells,9 Sommers Point,Greene City,RL,12340,(555) 576-8060
Anthony,West,056 Dunning Way,Agerstown,RL,12355,(555) 144-7273
Julie,Wheeler,53 Burning Wood Terrace,Carbon Creek,RL,12341,(555) 482-2209
Nancy,Wheeler,902 Blaine Avenue,Greene City,RL,12340,(555) 115-6745
Annie,White,969 Buell Plaza,Carbon Creek,RL,12341,(555) 731-6335
Sean,White,8511 Corscot Park,Carbon Creek,RL,12341,(555) 791-1006
Sharon,White,30 Coleman Circle,Olinger,RL,12343,(555) 359-2012
Stephen,White,5682 Lakewood Gardens Center,Greene City,RL,12340,(555) 292-2741
Elizabeth,Williams,86003 Express Place,Olinger,RL,12343,(555) 847-5440
Norma,Williams,30146 Sage Circle,Olinger,RL,12343,(555) 014-8612
Victor,Williams,348 Haas Plaza,Greene City,RL,12340,(555) 466-8517
Bonnie,Williamson,03861 Shopko Park,Olinger,RL,12343,(555) 668-2072
Cheryl,Williamson,40 Jay Circle,Greene City,RL,12340,(555) 174-9122
Gary,Williamson,90 Doe Crossing Way,Olinger,RL,12343,(555) 620-9267
Laura,Williamson,3899 Vahlen Terrace,Olinger,RL,12343,(555) 077-6875
Kathryn,Willis,001 Duke Park,Greene City,RL,12340,(555) 838-4820
Melissa,Willis,96735 Springs Pass,Greene City,RL,12340,(555) 413-4034
Ralph,Willis,1328 Merchant Pass,Greene City,RL,12340,(555) 465-3290
Susan,Willis,00 Clove Drive,Greene City,RL,12340,(555) 038-3978
Alan,Wilson,96 Pleasure Point,Olinger,RL,12343,(555) 930-6695
Andrew,Wilson,4 Gina Pass,Greene City,RL,12340,(555) 756-0411
Eric,Wilson,17 Hoard Pass,Greene City,RL,12340,(555) 219-8712
Gregory,Wilson,108 Brentwood Plaza,Greene City,RL,12340,(555) 999-9496
Jesse,Wilson,20 American Drive,Olinger,RL,12343,(555) 665-7104
Randy,Wilson,57963 Lakeland Lane,Greene City,RL,12340,(555) 981-5766
Roger,Wilson,676 Truax Hill,Carbon Creek,RL,12341,(555) 198-5146
Aaron,Wood,72 Lerdahl Circle,Olinger,RL,12343,(555) 818-0651
Doris,Wood,0296 Valley Edge Point,Greene City,RL,12340,(555) 142-3612
Judith,Woods,461 Merchant Center,Olinger,RL,12343,(555) 253-4288
Marie,Woods,73 Texas Point,Greene City,RL,12340,(555) 281-9595
Eric,Wright,8 Bay Hill,Greene City,RL,12340,(555) 168-5522
Mildred,Wright,3951 Eagan Street,Greene City,RL,12340,(555) 450-8916
Peter,Wright,5 Tennyson Pass,Greene City,RL,12340,(555) 679-5031
Samuel,Wright,9544 Veith Park,Greene City,RL,12340,(555) 399-7012
Julia,Young,990 Veith Drive,Greene City,RL,12340,(555) 033-5711
Julie,Young,778 Banding Center,Greene City,RL,12340,(555) 739-7334
Philip,Young,1753 Mccormick Terrace,Greene City,RL,12340,(555) 415-3330
